GAOFEN-11 01            
1 43585U 18063A   26175.31461422  .00014758  00000+0  21771-3 0  9992
2 43585  97.1292 242.1750 0002255 324.6649  35.4457 15.55469826441453
ICESAT-2                
1 43613U 18070A   26175.16104796  .00008377  00000+0  30356-3 0  9992
2 43613  92.0077 292.8634 0006154  95.0541 265.1411 15.28331165433520
HYSIS                   
1 43719U 18096A   26175.31695909  .00000429  00000+0  65722-4 0  9991
2 43719  97.9836 242.0093 0001845  95.4073 264.7349 14.78627273408479
KAZSTSAT                
1 43783U 18099AB  26175.10247321  .00001644  00000+0  13701-3 0  9992
2 43783  97.4281 206.7168 0008614  51.0851 309.1140 14.99887443412346
SAUDISAT 5A             
1 43831U 18102A   26175.30257485  .00004922  00000+0  18197-3 0  9991
2 43831  97.3067 236.7464 0011292 107.4765 252.7710 15.28110928416765
SAUDISAT 5B             
1 43833U 18102C   26175.32023148  .00004837  00000+0  17746-3 0  9996
2 43833  97.3175 239.8463 0012005 109.2997 250.9542 15.28364693416886
GAOFEN-10R              
1 44622U 19066A   26175.50798168  .00000786  00000+0  10337-3 0  9992
2 44622  98.0505 129.1406 0007077 106.0319 254.1674 14.83013170363460
GAOFEN-12 01            
1 44819U 19082A   26175.31161153  .00000311  00000+0  47284-4 0  9991
2 44819  97.8101 181.5030 0002034  62.4112 297.7307 14.80463417355148
CSG-1                   
1 44873U 19092A   26175.27497236  .00000342  00000+0  49551-4 0  9994
2 44873  97.8890 358.7748 0001452  90.0479 270.0900 14.82158248352520
NEMO-HD                 
1 46277U 20061F   26175.32055134  .00009894  00000+0  21369-3 0  9992
2 46277  97.1920 237.2017 0001977  75.6904 284.4565 15.44719662323088
SENTINEL-6A             
1 46984U 20086A   26175.19039378 -.00000057  00000+0  17151-4 0  9999
2 46984  66.0405 120.5068 0007888 270.1045  89.9066 12.80929965261228
CAS500-1                
1 47932U 21022A   26175.30376488  .00005229  00000+0  24487-3 0  9997
2 47932  97.3896  70.4129 0003485 261.5340  98.5500 15.20143059291844
GAOFEN-12 02            
1 48079U 21026A   26175.25583957  .00000298  00000+0  46037-4 0  9996
2 48079  97.9923 173.4076 0004195 194.7590 165.3500 14.80300674282804
PLEIADES NEO 4          
1 49070U 21073E   26175.24274391  .00001239  00000+0  16405-3 0  9999
2 49070  97.8931 249.9041 0001366  90.2278 269.9092 14.81676517262410
LANDSAT 9               
1 49260U 21088A   26175.20087319  .00000264  00000+0  68731-4 0  9991
2 49260  98.2278 245.2934 0001298  84.6405 275.4942 14.57101273252020
CSG-2                   
1 51444U 22008A   26175.30869764 -.00000319  00000+0 -33572-4 0  9992
2 51444  97.8893 358.8029 0001524  86.8718 273.2669 14.82157946237643
GAOFEN-12 03            
1 52912U 22069A   26175.28700787  .00000259  00000+0  40904-4 0  9994
2 52912  97.8272  62.9778 0002263  94.3276 265.8194 14.80042420215669
SWOT                    
1 54754U 22173A   26175.27658977  .00000059  00000+0  41781-4 0  9990
2 54754  77.6103  25.7394 0000291  91.5877 268.5308 14.00170355180142
GAOFEN-12 04            
1 57654U 23123A   26175.30274009  .00000786  00000+0  11008-3 0  9997
2 57654  97.9118  93.2183 0001753  80.0999 280.0411 14.80240229153682
PARS 1                  
1 59065U 24039Q   26175.30580487  .00009668  00000+0  20061-3 0  9999
2 59065  97.4824 156.4499 0011542  90.7180 269.5392 15.45854898129743
RESURS-P 4              
1 59371U 24061A   26175.25134913  .00002593  00000+0  85941-4 0  9996
2 59371  97.2749 123.0268 0002634 118.1571 241.9937 15.32165872124840
LEGION 1                
1 59625U 24081A   26175.22036216  .00003293  00000+0  17138-3 0  9994
2 59625  97.5016 253.0023 0008838 353.5133   6.5984 15.16707294118602
LEGION 2                
1 59626U 24081B   26175.25043977  .00003040  00000+0  15853-3 0  9992
2 59626  97.5017 253.1293 0010195 317.0423  43.0013 15.16685449118617
ALOS-4 (DAICHI-4)       
1 60182U 24123A   26174.85417657  .00000956  00000+0  13490-3 0  9991
2 60182  97.9249 271.9347 0001556  97.8361 262.3027 14.79467962106861
LEGION 3                
1 60452U 24146A   26175.18135460  .00003570  00000+0  19561-3 0  9992
2 60452  45.0029 353.0431 0008503 209.8313 150.2082 15.16087606103080
LEGION 4                
1 60453U 24146B   26175.25039086  .00003201  00000+0  17676-3 0  9994
2 60453  45.0015  84.5832 0012999 346.1079  13.9440 15.16080209101943
SENTINEL-2C             
1 60989U 24157A   26175.16554787  .00000074  00000+0  44731-4 0  9998
2 60989  98.5691 249.8490 0000947  86.4023 273.7268 14.30819497 93981
IONOSFERA-M 1           
1 61735U 24199A   26175.22638196  .00000038  00000+0  36751-4 0  9991
2 61735  98.7167  48.3240 0002104 100.9138 259.2277 14.22755456128705
