OBJECT_NAME,OBJECT_ID,EPOCH,MEAN_MOTION,ECCENTRICITY,INCLINATION,RA_OF_ASC_NODE,ARG_OF_PERICENTER,MEAN_ANOMALY,EPHEMERIS_TYPE,CLASSIFICATION_TYPE,NORAD_CAT_ID,ELEMENT_SET_NO,REV_AT_EPOCH,BSTAR,MEAN_MOTION_DOT,MEAN_MOTION_DDOT
GAOFEN-11 01,2018-063A,2026-06-24T07:33:02.668608,15.55469826,.00022556,97.1292,242.1750,324.6649,35.4457,0,U,43585,999,44145,.21770608E-3,.14758E-3,0
ICESAT-2,2018-070A,2026-06-24T03:51:54.543744,15.28331165,.00061548,92.0077,292.8634,95.0541,265.1411,0,U,43613,999,43352,.30355675E-3,.8377E-4,0
HYSIS,2018-096A,2026-06-24T07:36:25.265376,14.78627273,.00018454,97.9836,242.0093,95.4073,264.7349,0,U,43719,999,40847,.65721619E-4,.429E-5,0
KAZSTSAT,2018-099AB,2026-06-24T02:27:33.685344,14.99887443,.00086144,97.4281,206.7168,51.0851,309.1140,0,U,43783,999,41234,.13701094E-3,.1644E-4,0
SAUDISAT 5A,2018-102A,2026-06-24T07:15:42.467040,15.28110928,.0011292,97.3067,236.7464,107.4765,252.7710,0,U,43831,999,41676,.18196984E-3,.4922E-4,0
SAUDISAT 5B,2018-102C,2026-06-24T07:41:07.999872,15.28364693,.00120055,97.3175,239.8463,109.2997,250.9542,0,U,43833,999,41688,.17746275E-3,.4837E-4,0
GAOFEN-10R,2019-066A,2026-06-24T12:11:29.617152,14.83013170,.0007077,98.0505,129.1406,106.0319,254.1674,0,U,44622,999,36346,.10337E-3,.786E-5,0
GAOFEN-12 01,2019-082A,2026-06-24T07:28:43.236192,14.80463417,.00020341,97.8101,181.5030,62.4112,297.7307,0,U,44819,999,35514,.47283879E-4,.311E-5,0
CSG-1,2019-092A,2026-06-24T06:35:57.611904,14.82158248,.00014529,97.8890,358.7748,90.0479,270.0900,0,U,44873,999,35252,.49550818E-4,.342E-5,0
NEMO-HD,2020-061F,2026-06-24T07:41:35.635776,15.44719662,.00019776,97.1920,237.2017,75.6904,284.4565,0,U,46277,999,32308,.21368586E-3,.9894E-4,0
SENTINEL-6A,2020-086A,2026-06-24T04:34:10.022592,12.80929965,.00078885,66.0405,120.5068,270.1045,89.9066,0,U,46984,999,26122,.17150799E-4,-.57E-6,0
CAS500-1,2021-022A,2026-06-24T07:17:25.285632,15.20143059,.00034854,97.3896,70.4129,261.5340,98.5500,0,U,47932,999,29184,.24487224E-3,.5229E-4,0
GAOFEN-12 02,2021-026A,2026-06-24T06:08:24.538848,14.80300674,.00041958,97.9923,173.4076,194.7590,165.3500,0,U,48079,999,28280,.4603733E-4,.298E-5,0
PLEIADES NEO 4,2021-073E,2026-06-24T05:49:33.073824,14.81676517,.00013669,97.8931,249.9041,90.2278,269.9092,0,U,49070,999,26241,.16405374E-3,.1239E-4,0
LANDSAT 9,2021-088A,2026-06-24T04:49:15.443616,14.57101273,.00012986,98.2278,245.2934,84.6405,275.4942,0,U,49260,999,25202,.6873079E-4,.264E-5,0
CSG-2,2022-008A,2026-06-24T07:24:31.476096,14.82157946,.00015245,97.8893,358.8029,86.8718,273.2669,0,U,51444,999,23764,-.33571796E-4,-.319E-5,0
GAOFEN-12 03,2022-069A,2026-06-24T06:53:17.479968,14.80042420,.0002263,97.8272,62.9778,94.3276,265.8194,0,U,52912,999,21566,.40903762E-4,.259E-5,0
SWOT,2022-173A,2026-06-24T06:38:17.356128,14.00170355,.00002913,77.6103,25.7394,91.5877,268.5308,0,U,54754,999,18014,.41780571E-4,.59E-6,0
GAOFEN-12 04,2023-123A,2026-06-24T07:15:56.743776,14.80240229,.00017537,97.9118,93.2183,80.0999,280.0411,0,U,57654,999,15368,.11007516E-3,.786E-5,0
PARS 1,2024-039Q,2026-06-24T07:20:21.540768,15.45854898,.00115423,97.4824,156.4499,90.7180,269.5392,0,U,59065,999,12974,.20060962E-3,.9668E-4,0
RESURS-P 4,2024-061A,2026-06-24T06:01:56.564832,15.32165872,.00026341,97.2749,123.0268,118.1571,241.9937,0,U,59371,999,12484,.85941127E-4,.2593E-4,0
LEGION 1,2024-081A,2026-06-24T05:17:19.290624,15.16707294,.00088382,97.5016,253.0023,353.5133,6.5984,0,U,59625,999,11860,.17137881E-3,.3293E-4,0
LEGION 2,2024-081B,2026-06-24T06:00:37.996128,15.16685449,.00101954,97.5017,253.1293,317.0423,43.0013,0,U,59626,999,11861,.1585324E-3,.304E-4,0
ALOS-4 (DAICHI-4),2024-123A,2026-06-23T20:30:00.855648,14.79467962,.00015569,97.9249,271.9347,97.8361,262.3027,0,U,60182,999,10686,.1349047E-3,.956E-5,0
LEGION 3,2024-146A,2026-06-24T04:21:09.037440,15.16087606,.0008503,45.0029,353.0431,209.8313,150.2082,0,U,60452,999,10308,.19561123E-3,.357E-4,0
LEGION 4,2024-146B,2026-06-24T06:00:33.770304,15.16080209,.00129994,45.0015,84.5832,346.1079,13.9440,0,U,60453,999,10194,.17675907E-3,.3201E-4,0
SENTINEL-2C,2024-157A,2026-06-24T03:58:23.335968,14.30819497,.00009471,98.5691,249.8490,86.4023,273.7268,0,U,60989,999,9398,.44731039E-4,.74E-6,0
IONOSFERA-M 1,2024-199A,2026-06-24T05:25:59.401344,14.22755456,.00021046,98.7167,48.3240,100.9138,259.2277,0,U,61735,999,12870,.36751331E-4,.38E-6,0
